ARIANE 5 R/B            
1 28499U 04049H   26060.07685262  .00000865  00000+0  10171-3 0  9990
2 28499  98.2613 228.2124 0084564  19.8258 340.6209 14.85246760144516
CZ-2D R/B               
1 28738U 05024B   26059.98393604  .00043129  00000+0  54815-3 0  9997
2 28738  97.3604  74.8167 0007048  67.7327 292.4676 15.59248972138429
ALOS (DAICHI)           
1 28931U 06002A   26060.26554628  .00001694  00000+0  29221-3 0  9991
2 28931  98.1204  16.2643 0001265  51.7549 308.3770 14.69777433 72240
H-2A R/B                
1 28932U 06002B   26060.29433302  .00011463  00000+0  57694-3 0  9990
2 28932  98.2386 206.5986 0051974 269.9282  89.5993 15.16203798 93166
RESURS-DK 1             
1 29228U 06021A   26060.00528229  .00002851  00000+0  16864-3 0  9997
2 29228  69.9304 259.4889 0002575 166.8523 193.2711 15.12677600 86217
CZ-4B R/B               
1 29507U 06046C   26060.09935762  .00004854  00000+0  24749-3 0  9993
2 29507  97.5614 105.0312 0031842 298.6675  61.1357 15.16798297 58742
CZ-2C R/B               
1 31114U 07010B   26060.27186740  .00000142  00000+0  84233-4 0  9997
2 31114  98.3976 173.9729 0058148 319.5251  40.1609 14.20242747978528
COSMO-SKYMED 1          
1 31598U 07023A   26060.30645568  .00003543  00000+0  31747-3 0  9998
2 31598  97.8867 251.2721 0000921  83.3917 276.7408 14.96457769 13653
COSMOS 2428             
1 31792U 07029A   26059.89772062  .00000111  00000+0  85409-4 0  9995
2 31792  70.9415 221.7971 0008612 286.5734  73.4441 14.12943652962851
SL-16 R/B               
1 31793U 07029B   26060.28312004 -.00000221  00000+0 -89634-4 0  9995
2 31793  70.9755 190.0542 0002443 279.1985  98.2605 14.14834453964188
KORONAS-FOTON           
1 33504U 09003A   26060.07540545  .00012492  00000+0  28134-3 0  9999
2 33504  82.4291 284.8337 0010526 179.1996 180.9270 15.43077401944415
CZ-2C R/B               
1 37731U 11030B   26060.32096339  .00002058  00000+0  26501-3 0  9996
2 37731  97.8528  17.7528 0053220  19.2100 138.7996 14.81182556788857
H-2A R/B                
1 38341U 12025E   26059.89454640  .00004309  00000+0  39203-3 0  9996
2 38341  98.4703  26.2382 0044269 343.2437  16.7316 14.95073204746901
SHIJIAN-16 (SJ-16)      
1 39358U 13057A   26060.31606903  .00001508  00000+0  15016-3 0  9995
2 39358  74.9714 200.9384 0015860 134.2010 226.0484 14.92294867670257
SL-4 R/B                
1 39679U 14021B   26060.25245010  .00017189  00000+0  38115-3 0  9991
2 39679  51.6077  18.4284 0098298  72.2206 288.9475 15.38848335654976
ALOS-2                  
1 39766U 14029A   26060.26478440  .00001405  00000+0  19507-3 0  9990
2 39766  97.9199 158.9840 0001465  96.2144 263.9235 14.79461931635621
YAOGAN-29               
1 41038U 15069A   26060.29295922  .00000761  00000+0  10037-3 0  9998
2 41038  98.0159  88.7001 0002373  50.1043 310.0379 14.82984179554631
ASTRO-H (HITOMI)        
1 41337U 16012A   26060.30496411  .00004008  00000+0  23522-3 0  9998
2 41337  31.0001  50.6521 0010016 247.8561 112.1014 15.09932285550964
HXMT (HUIYAN)           
1 42758U 17034A   26060.28616696  .00006288  00000+0  31709-3 0  9995
2 42758  43.0149  63.3882 0031930 184.0370 176.0224 15.17334917481262
SAOCOM 1A               
1 43641U 18076A   26060.32170468 -.00000023  00000+0  36497-5 0  9994
2 43641  97.8888 248.6119 0001283  82.2883 277.8476 14.82155879400122
H-2A R/B                
1 43682U 18084L   26059.51299476  .00020388  00000+0  49234-3 0  9994
2 43682  98.8746 274.9427 0026064  56.2065 304.1653 15.40886935404362
SAOCOM 1B               
1 46265U 20059A   26060.28542295  .00000866  00000+0  11527-3 0  9998
2 46265  97.8886 247.6740 0001507  83.6995 276.4390 14.82162972297500
CSS (TIANHE)            
1 48274U 21035A   26060.33147196  .00025666  00000+0  30813-3 0  9996
2 48274  41.4653 259.0034 0006432 220.8095 139.2263 15.60273680276306
COSMOS 2550             
1 48865U 21056A   26060.30117362 -.00000176  00000+0  47935-6 0  9990
2 48865  67.1423  66.3057 0008325 269.3508  90.6692 15.33838814262178
CZ-2C R/B               
1 52794U 22058K   26060.21678724  .00031565  00000+0  47382-3 0  9991
2 52794  50.1901   1.8516 0042141 164.6567 195.5692 15.53536104208812
CZ-2C R/B               
1 54039U 22132E   26059.97614108  .00044232  00000+0  52163-3 0  9993
2 54039  97.2960  63.0346 0020635 118.8971 241.4360 15.60975075189013
GSLV R/B                
1 54149U 22138AN  26060.29680920  .00004396  00000+0  38097-3 0  9990
2 54149  87.3879 169.1705 0021791 175.8624 184.2792 14.96699803182671
XRISM                   
1 57800U 23137A   26060.05543912  .00006511  00000+0  37053-3 0  9992
2 57800  31.0035 339.5050 0008238 311.9098  48.0837 15.11376997136482
ACS3                    
1 59588U 24077B   26060.28823592  .00022675  00000+0  18411-1 0  9995
2 59588  97.2120   3.2885 0054056  99.5353 261.1925 13.89183729 93030
SZ-21 MODULE            
1 66515U 25246C   26059.58432385  .00035117  00000+0  31267-3 0  9990
2 66515  41.4737 259.3806 0001436 285.8647  74.2036 15.67747367 16640
